<?xml version="1.0" encoding="UTF-8"?>
<gpx version="1.1"
     creator="Komoot GPX Exporter"
     xmlns="http://www.topografix.com/GPX/1/1">
  <metadata>
    <name>Tour d09ApNOLQGqFP0</name>
  </metadata>
    <trk>
      <name>Tour d09ApNOLQGqFP0</name>
      <trkseg>
      <trkpt lat="43.208237" lon="27.923709">
        <ele>32.5</ele>
      </trkpt>
      <trkpt lat="43.209705" lon="27.930966">
        <ele>34</ele>
      </trkpt>
      <trkpt lat="43.209886" lon="27.931725">
        <ele>35</ele>
      </trkpt>
      <trkpt lat="43.210013" lon="27.932104">
        <ele>35.6</ele>
      </trkpt>
      <trkpt lat="43.210197" lon="27.932595">
        <ele>36.7</ele>
      </trkpt>
      <trkpt lat="43.21048" lon="27.933234">
        <ele>38.2</ele>
      </trkpt>
      <trkpt lat="43.211164" lon="27.934657">
        <ele>41.3</ele>
      </trkpt>
      <trkpt lat="43.211401" lon="27.935152">
        <ele>42.2</ele>
      </trkpt>
      <trkpt lat="43.211572" lon="27.935428">
        <ele>42.7</ele>
      </trkpt>
      <trkpt lat="43.21214" lon="27.936476">
        <ele>44.2</ele>
      </trkpt>
      <trkpt lat="43.212595" lon="27.93732">
        <ele>45.2</ele>
      </trkpt>
      <trkpt lat="43.212996" lon="27.938192">
        <ele>45.5</ele>
      </trkpt>
      <trkpt lat="43.213412" lon="27.939242">
        <ele>45.5</ele>
      </trkpt>
      <trkpt lat="43.213771" lon="27.940424">
        <ele>45.7</ele>
      </trkpt>
      <trkpt lat="43.214003" lon="27.941585">
        <ele>46.4</ele>
      </trkpt>
      <trkpt lat="43.214179" lon="27.942931">
        <ele>47.8</ele>
      </trkpt>
      <trkpt lat="43.214365" lon="27.944738">
        <ele>49.3</ele>
      </trkpt>
      <trkpt lat="43.214387" lon="27.944949">
        <ele>49.5</ele>
      </trkpt>
      <trkpt lat="43.21452" lon="27.946205">
        <ele>49.8</ele>
      </trkpt>
      <trkpt lat="43.214822" lon="27.949019">
        <ele>48.7</ele>
      </trkpt>
      <trkpt lat="43.215011" lon="27.950602">
        <ele>47.4</ele>
      </trkpt>
      <trkpt lat="43.215053" lon="27.950961">
        <ele>47.3</ele>
      </trkpt>
      <trkpt lat="43.215219" lon="27.952388">
        <ele>47.3</ele>
      </trkpt>
      <trkpt lat="43.215472" lon="27.953762">
        <ele>47.5</ele>
      </trkpt>
      <trkpt lat="43.215536" lon="27.954051">
        <ele>47.5</ele>
      </trkpt>
      <trkpt lat="43.215614" lon="27.954373">
        <ele>47.5</ele>
      </trkpt>
      <trkpt lat="43.215671" lon="27.95459">
        <ele>47.5</ele>
      </trkpt>
      <trkpt lat="43.215768" lon="27.954966">
        <ele>47.4</ele>
      </trkpt>
      <trkpt lat="43.215983" lon="27.95571">
        <ele>46.8</ele>
      </trkpt>
      <trkpt lat="43.21601" lon="27.955801">
        <ele>46.7</ele>
      </trkpt>
      <trkpt lat="43.21609" lon="27.956054">
        <ele>46.3</ele>
      </trkpt>
      <trkpt lat="43.216294" lon="27.95675">
        <ele>44.9</ele>
      </trkpt>
      <trkpt lat="43.216417" lon="27.957268">
        <ele>43.7</ele>
      </trkpt>
      <trkpt lat="43.21641" lon="27.957353">
        <ele>43.6</ele>
      </trkpt>
      <trkpt lat="43.21648" lon="27.957473">
        <ele>43.2</ele>
      </trkpt>
      <trkpt lat="43.216673" lon="27.957946">
        <ele>42.2</ele>
      </trkpt>
      <trkpt lat="43.216885" lon="27.958569">
        <ele>41.1</ele>
      </trkpt>
      <trkpt lat="43.217058" lon="27.959103">
        <ele>40.4</ele>
      </trkpt>
      <trkpt lat="43.217751" lon="27.961332">
        <ele>39.9</ele>
      </trkpt>
      <trkpt lat="43.217988" lon="27.962115">
        <ele>40.9</ele>
      </trkpt>
      <trkpt lat="43.218029" lon="27.962253">
        <ele>41.1</ele>
      </trkpt>
      <trkpt lat="43.218188" lon="27.962947">
        <ele>42.2</ele>
      </trkpt>
      <trkpt lat="43.218224" lon="27.963213">
        <ele>42.5</ele>
      </trkpt>
      <trkpt lat="43.218252" lon="27.96376">
        <ele>43</ele>
      </trkpt>
      <trkpt lat="43.218223" lon="27.964769">
        <ele>43.3</ele>
      </trkpt>
      <trkpt lat="43.218254" lon="27.965368">
        <ele>43.3</ele>
      </trkpt>
      <trkpt lat="43.218678" lon="27.967576">
        <ele>46.2</ele>
      </trkpt>
      <trkpt lat="43.21892" lon="27.969651">
        <ele>54.5</ele>
      </trkpt>
      <trkpt lat="43.218973" lon="27.969907">
        <ele>55.6</ele>
      </trkpt>
      <trkpt lat="43.219138" lon="27.970374">
        <ele>57.5</ele>
      </trkpt>
      <trkpt lat="43.219431" lon="27.970966">
        <ele>59.4</ele>
      </trkpt>
      <trkpt lat="43.219656" lon="27.97152">
        <ele>60.5</ele>
      </trkpt>
      <trkpt lat="43.220035" lon="27.972981">
        <ele>61.9</ele>
      </trkpt>
      <trkpt lat="43.220595" lon="27.975324">
        <ele>67.3</ele>
      </trkpt>
      <trkpt lat="43.220755" lon="27.975855">
        <ele>69.9</ele>
      </trkpt>
      <trkpt lat="43.220863" lon="27.976061">
        <ele>71.2</ele>
      </trkpt>
      <trkpt lat="43.220954" lon="27.976168">
        <ele>72.1</ele>
      </trkpt>
      <trkpt lat="43.221025" lon="27.976236">
        <ele>72.7</ele>
      </trkpt>
      <trkpt lat="43.221232" lon="27.976425">
        <ele>74.8</ele>
      </trkpt>
      <trkpt lat="43.221398" lon="27.976666">
        <ele>76.9</ele>
      </trkpt>
      <trkpt lat="43.221522" lon="27.976747">
        <ele>78.2</ele>
      </trkpt>
      <trkpt lat="43.221619" lon="27.976722">
        <ele>79.1</ele>
      </trkpt>
      <trkpt lat="43.221698" lon="27.976587">
        <ele>80.3</ele>
      </trkpt>
      <trkpt lat="43.221705" lon="27.976423">
        <ele>81.3</ele>
      </trkpt>
      <trkpt lat="43.221872" lon="27.976302">
        <ele>82.7</ele>
      </trkpt>
      <trkpt lat="43.222546" lon="27.976132">
        <ele>88.3</ele>
      </trkpt>
      <trkpt lat="43.222863" lon="27.976062">
        <ele>91.3</ele>
      </trkpt>
      <trkpt lat="43.222933" lon="27.976026">
        <ele>92</ele>
      </trkpt>
      <trkpt lat="43.223048" lon="27.975893">
        <ele>93.4</ele>
      </trkpt>
      <trkpt lat="43.223275" lon="27.975409">
        <ele>97.2</ele>
      </trkpt>
      <trkpt lat="43.223378" lon="27.975167">
        <ele>98.9</ele>
      </trkpt>
      <trkpt lat="43.223427" lon="27.974954">
        <ele>100.3</ele>
      </trkpt>
      <trkpt lat="43.223356" lon="27.974495">
        <ele>103.2</ele>
      </trkpt>
      <trkpt lat="43.223336" lon="27.974408">
        <ele>103.8</ele>
      </trkpt>
      <trkpt lat="43.223351" lon="27.974212">
        <ele>105</ele>
      </trkpt>
      <trkpt lat="43.223649" lon="27.973609">
        <ele>108.9</ele>
      </trkpt>
      <trkpt lat="43.223705" lon="27.973526">
        <ele>109.5</ele>
      </trkpt>
      <trkpt lat="43.223864" lon="27.97342">
        <ele>110.7</ele>
      </trkpt>
      <trkpt lat="43.224576" lon="27.973226">
        <ele>115.5</ele>
      </trkpt>
      <trkpt lat="43.224769" lon="27.973184">
        <ele>116.9</ele>
      </trkpt>
      <trkpt lat="43.225053" lon="27.973097">
        <ele>118.9</ele>
      </trkpt>
      <trkpt lat="43.225221" lon="27.973009">
        <ele>120.2</ele>
      </trkpt>
      <trkpt lat="43.225354" lon="27.972904">
        <ele>121.4</ele>
      </trkpt>
      <trkpt lat="43.225485" lon="27.972756">
        <ele>122.7</ele>
      </trkpt>
      <trkpt lat="43.225658" lon="27.972479">
        <ele>124.7</ele>
      </trkpt>
      <trkpt lat="43.225687" lon="27.972402">
        <ele>125.2</ele>
      </trkpt>
      <trkpt lat="43.226021" lon="27.971519">
        <ele>130.7</ele>
      </trkpt>
      <trkpt lat="43.22642" lon="27.97051">
        <ele>136.5</ele>
      </trkpt>
      <trkpt lat="43.226807" lon="27.969528">
        <ele>142.2</ele>
      </trkpt>
      <trkpt lat="43.228019" lon="27.966487">
        <ele>161.9</ele>
      </trkpt>
      <trkpt lat="43.228094" lon="27.966253">
        <ele>163.1</ele>
      </trkpt>
      <trkpt lat="43.228125" lon="27.966156">
        <ele>163.5</ele>
      </trkpt>
      <trkpt lat="43.228211" lon="27.965989">
        <ele>164.3</ele>
      </trkpt>
      <trkpt lat="43.228276" lon="27.965946">
        <ele>164.7</ele>
      </trkpt>
      <trkpt lat="43.228339" lon="27.965919">
        <ele>165</ele>
      </trkpt>
      <trkpt lat="43.228489" lon="27.965922">
        <ele>165.6</ele>
      </trkpt>
      <trkpt lat="43.228749" lon="27.966039">
        <ele>166.5</ele>
      </trkpt>
      <trkpt lat="43.229006" lon="27.96613">
        <ele>167.1</ele>
      </trkpt>
      <trkpt lat="43.229086" lon="27.966222">
        <ele>167.2</ele>
      </trkpt>
      <trkpt lat="43.22944" lon="27.966678">
        <ele>167.5</ele>
      </trkpt>
      <trkpt lat="43.22947" lon="27.966764">
        <ele>167.5</ele>
      </trkpt>
      <trkpt lat="43.229514" lon="27.966937">
        <ele>167.6</ele>
      </trkpt>
      <trkpt lat="43.229679" lon="27.967333">
        <ele>167.8</ele>
      </trkpt>
      <trkpt lat="43.229918" lon="27.967601">
        <ele>168.1</ele>
      </trkpt>
      <trkpt lat="43.230139" lon="27.967707">
        <ele>168.5</ele>
      </trkpt>
      <trkpt lat="43.230779" lon="27.96778">
        <ele>170.1</ele>
      </trkpt>
      <trkpt lat="43.231141" lon="27.967821">
        <ele>171.1</ele>
      </trkpt>
      <trkpt lat="43.231732" lon="27.96789">
        <ele>172.8</ele>
      </trkpt>
      <trkpt lat="43.23229" lon="27.967964">
        <ele>174.5</ele>
      </trkpt>
      <trkpt lat="43.232523" lon="27.967995">
        <ele>175.2</ele>
      </trkpt>
      <trkpt lat="43.233532" lon="27.968111">
        <ele>177.7</ele>
      </trkpt>
      <trkpt lat="43.234261" lon="27.968177">
        <ele>178.7</ele>
      </trkpt>
      <trkpt lat="43.23442" lon="27.968187">
        <ele>178.7</ele>
      </trkpt>
      <trkpt lat="43.235203" lon="27.968254">
        <ele>178.4</ele>
      </trkpt>
      <trkpt lat="43.235447" lon="27.968265">
        <ele>178.1</ele>
      </trkpt>
      <trkpt lat="43.235474" lon="27.968267">
        <ele>178.1</ele>
      </trkpt>
      <trkpt lat="43.235626" lon="27.96828">
        <ele>177.9</ele>
      </trkpt>
      <trkpt lat="43.236529" lon="27.968329">
        <ele>176.3</ele>
      </trkpt>
      <trkpt lat="43.236755" lon="27.968344">
        <ele>175.7</ele>
      </trkpt>
      <trkpt lat="43.236947" lon="27.968392">
        <ele>175.2</ele>
      </trkpt>
      <trkpt lat="43.237327" lon="27.968643">
        <ele>173.9</ele>
      </trkpt>
      <trkpt lat="43.237556" lon="27.968902">
        <ele>172.9</ele>
      </trkpt>
      <trkpt lat="43.237755" lon="27.969224">
        <ele>171.7</ele>
      </trkpt>
      <trkpt lat="43.238125" lon="27.970112">
        <ele>169.2</ele>
      </trkpt>
      <trkpt lat="43.238243" lon="27.970427">
        <ele>168.6</ele>
      </trkpt>
      <trkpt lat="43.238639" lon="27.971402">
        <ele>167</ele>
      </trkpt>
      <trkpt lat="43.238855" lon="27.971889">
        <ele>166.5</ele>
      </trkpt>
      <trkpt lat="43.239286" lon="27.972735">
        <ele>165.3</ele>
      </trkpt>
      <trkpt lat="43.239477" lon="27.973096">
        <ele>164.6</ele>
      </trkpt>
      <trkpt lat="43.239523" lon="27.973176">
        <ele>164.4</ele>
      </trkpt>
      <trkpt lat="43.239561" lon="27.973242">
        <ele>164.2</ele>
      </trkpt>
      <trkpt lat="43.239678" lon="27.973444">
        <ele>163.7</ele>
      </trkpt>
      <trkpt lat="43.239815" lon="27.973785">
        <ele>162.9</ele>
      </trkpt>
      <trkpt lat="43.239982" lon="27.974414">
        <ele>161.6</ele>
      </trkpt>
      <trkpt lat="43.240099" lon="27.974887">
        <ele>160.8</ele>
      </trkpt>
      <trkpt lat="43.240175" lon="27.975138">
        <ele>160.4</ele>
      </trkpt>
      <trkpt lat="43.240379" lon="27.975636">
        <ele>159.7</ele>
      </trkpt>
      <trkpt lat="43.240484" lon="27.975811">
        <ele>159.5</ele>
      </trkpt>
      <trkpt lat="43.240938" lon="27.976327">
        <ele>158.8</ele>
      </trkpt>
      <trkpt lat="43.241751" lon="27.9772">
        <ele>157.5</ele>
      </trkpt>
      <trkpt lat="43.242108" lon="27.977582">
        <ele>156.6</ele>
      </trkpt>
      <trkpt lat="43.242154" lon="27.977627">
        <ele>156.5</ele>
      </trkpt>
      <trkpt lat="43.242346" lon="27.977815">
        <ele>155.9</ele>
      </trkpt>
      <trkpt lat="43.242858" lon="27.978368">
        <ele>154.3</ele>
      </trkpt>
      <trkpt lat="43.243494" lon="27.979146">
        <ele>152</ele>
      </trkpt>
      <trkpt lat="43.244045" lon="27.979702">
        <ele>150.4</ele>
      </trkpt>
      <trkpt lat="43.244666" lon="27.980291">
        <ele>149.1</ele>
      </trkpt>
      <trkpt lat="43.244862" lon="27.98056">
        <ele>148.7</ele>
      </trkpt>
      <trkpt lat="43.244948" lon="27.980667">
        <ele>148.5</ele>
      </trkpt>
      <trkpt lat="43.24543" lon="27.981191">
        <ele>147.8</ele>
      </trkpt>
      <trkpt lat="43.245846" lon="27.981586">
        <ele>147.3</ele>
      </trkpt>
      <trkpt lat="43.246067" lon="27.981768">
        <ele>147.1</ele>
      </trkpt>
      <trkpt lat="43.246384" lon="27.98204">
        <ele>146.8</ele>
      </trkpt>
      <trkpt lat="43.246653" lon="27.982252">
        <ele>146.6</ele>
      </trkpt>
      <trkpt lat="43.24693" lon="27.982486">
        <ele>146.4</ele>
      </trkpt>
      <trkpt lat="43.247715" lon="27.983303">
        <ele>146.5</ele>
      </trkpt>
      <trkpt lat="43.247856" lon="27.983545">
        <ele>146.7</ele>
      </trkpt>
      <trkpt lat="43.247946" lon="27.983719">
        <ele>146.8</ele>
      </trkpt>
      <trkpt lat="43.248344" lon="27.984384">
        <ele>147.1</ele>
      </trkpt>
      <trkpt lat="43.248475" lon="27.984654">
        <ele>147.3</ele>
      </trkpt>
      <trkpt lat="43.248702" lon="27.985143">
        <ele>147.3</ele>
      </trkpt>
      <trkpt lat="43.248947" lon="27.985824">
        <ele>146.5</ele>
      </trkpt>
      <trkpt lat="43.249181" lon="27.986634">
        <ele>144.4</ele>
      </trkpt>
      <trkpt lat="43.249333" lon="27.98698">
        <ele>143.2</ele>
      </trkpt>
      <trkpt lat="43.249428" lon="27.98716">
        <ele>142.5</ele>
      </trkpt>
      <trkpt lat="43.249589" lon="27.987374">
        <ele>141.6</ele>
      </trkpt>
      <trkpt lat="43.249905" lon="27.987747">
        <ele>139.9</ele>
      </trkpt>
      <trkpt lat="43.250876" lon="27.988929">
        <ele>138.5</ele>
      </trkpt>
      <trkpt lat="43.25103" lon="27.989181">
        <ele>139.1</ele>
      </trkpt>
      <trkpt lat="43.251321" lon="27.98985">
        <ele>140.9</ele>
      </trkpt>
      <trkpt lat="43.251498" lon="27.99032">
        <ele>142.5</ele>
      </trkpt>
      <trkpt lat="43.251551" lon="27.990498">
        <ele>143.1</ele>
      </trkpt>
      <trkpt lat="43.251678" lon="27.990922">
        <ele>144.4</ele>
      </trkpt>
      <trkpt lat="43.251918" lon="27.991724">
        <ele>146.8</ele>
      </trkpt>
      <trkpt lat="43.251964" lon="27.991892">
        <ele>147.2</ele>
      </trkpt>
      <trkpt lat="43.252154" lon="27.992638">
        <ele>149.2</ele>
      </trkpt>
      <trkpt lat="43.252193" lon="27.992941">
        <ele>149.9</ele>
      </trkpt>
      <trkpt lat="43.252173" lon="27.99371">
        <ele>151.6</ele>
      </trkpt>
      <trkpt lat="43.252009" lon="27.994809">
        <ele>153.6</ele>
      </trkpt>
      <trkpt lat="43.251926" lon="27.995207">
        <ele>154.3</ele>
      </trkpt>
      <trkpt lat="43.251735" lon="27.995644">
        <ele>155.2</ele>
      </trkpt>
      <trkpt lat="43.251584" lon="27.995854">
        <ele>155.9</ele>
      </trkpt>
      <trkpt lat="43.251427" lon="27.996007">
        <ele>156.6</ele>
      </trkpt>
      <trkpt lat="43.251212" lon="27.996243">
        <ele>157.7</ele>
      </trkpt>
      <trkpt lat="43.250108" lon="27.99829">
        <ele>165.1</ele>
      </trkpt>
      <trkpt lat="43.249983" lon="27.998576">
        <ele>165.6</ele>
      </trkpt>
      <trkpt lat="43.249891" lon="27.999129">
        <ele>166.2</ele>
      </trkpt>
      <trkpt lat="43.249876" lon="27.999388">
        <ele>166.4</ele>
      </trkpt>
      <trkpt lat="43.249805" lon="27.999703">
        <ele>166.9</ele>
      </trkpt>
      <trkpt lat="43.249597" lon="28.00037">
        <ele>168.9</ele>
      </trkpt>
      <trkpt lat="43.249526" lon="28.00064">
        <ele>170</ele>
      </trkpt>
      <trkpt lat="43.249519" lon="28.000767">
        <ele>170.5</ele>
      </trkpt>
      <trkpt lat="43.249544" lon="28.000956">
        <ele>171.3</ele>
      </trkpt>
      <trkpt lat="43.249575" lon="28.00101">
        <ele>171.6</ele>
      </trkpt>
      <trkpt lat="43.249706" lon="28.001084">
        <ele>172.5</ele>
      </trkpt>
      <trkpt lat="43.249768" lon="28.001083">
        <ele>172.9</ele>
      </trkpt>
      <trkpt lat="43.249931" lon="28.000998">
        <ele>174.1</ele>
      </trkpt>
      <trkpt lat="43.249974" lon="28.000954">
        <ele>174.5</ele>
      </trkpt>
      <trkpt lat="43.250914" lon="28.000184">
        <ele>182.3</ele>
      </trkpt>
      <trkpt lat="43.251031" lon="28.000122">
        <ele>183</ele>
      </trkpt>
      <trkpt lat="43.251371" lon="28.000092">
        <ele>184.8</ele>
      </trkpt>
      <trkpt lat="43.251994" lon="28.000189">
        <ele>188.4</ele>
      </trkpt>
      <trkpt lat="43.252179" lon="28.000165">
        <ele>189.5</ele>
      </trkpt>
      <trkpt lat="43.252349" lon="28.00009">
        <ele>190.7</ele>
      </trkpt>
      <trkpt lat="43.252836" lon="27.999663">
        <ele>194.4</ele>
      </trkpt>
      <trkpt lat="43.25316" lon="27.999316">
        <ele>197</ele>
      </trkpt>
      <trkpt lat="43.253353" lon="27.999076">
        <ele>198.4</ele>
      </trkpt>
      <trkpt lat="43.254199" lon="27.997914">
        <ele>202.3</ele>
      </trkpt>
      <trkpt lat="43.254363" lon="27.997737">
        <ele>202.5</ele>
      </trkpt>
      <trkpt lat="43.254513" lon="27.997633">
        <ele>202.6</ele>
      </trkpt>
      <trkpt lat="43.254639" lon="27.99759">
        <ele>202.7</ele>
      </trkpt>
      <trkpt lat="43.254776" lon="27.997576">
        <ele>202.7</ele>
      </trkpt>
      <trkpt lat="43.254909" lon="27.997603">
        <ele>202.7</ele>
      </trkpt>
      <trkpt lat="43.255051" lon="27.997673">
        <ele>202.6</ele>
      </trkpt>
      <trkpt lat="43.255164" lon="27.99778">
        <ele>202.6</ele>
      </trkpt>
      <trkpt lat="43.255263" lon="27.997936">
        <ele>202.7</ele>
      </trkpt>
      <trkpt lat="43.255455" lon="27.998338">
        <ele>203.3</ele>
      </trkpt>
      <trkpt lat="43.255537" lon="27.99844">
        <ele>203.6</ele>
      </trkpt>
      <trkpt lat="43.255633" lon="27.998504">
        <ele>203.9</ele>
      </trkpt>
      <trkpt lat="43.255863" lon="27.998574">
        <ele>204.6</ele>
      </trkpt>
      <trkpt lat="43.255996" lon="27.998558">
        <ele>205.1</ele>
      </trkpt>
      <trkpt lat="43.256224" lon="27.998475">
        <ele>206.2</ele>
      </trkpt>
      <trkpt lat="43.257184" lon="27.99807">
        <ele>212.8</ele>
      </trkpt>
      <trkpt lat="43.257647" lon="27.997968">
        <ele>215.4</ele>
      </trkpt>
      <trkpt lat="43.257895" lon="27.997976">
        <ele>216.6</ele>
      </trkpt>
      <trkpt lat="43.258372" lon="27.998046">
        <ele>218.2</ele>
      </trkpt>
      <trkpt lat="43.258735" lon="27.998158">
        <ele>219.3</ele>
      </trkpt>
      <trkpt lat="43.259409" lon="27.998676">
        <ele>221.6</ele>
      </trkpt>
      <trkpt lat="43.259811" lon="27.998866">
        <ele>222.5</ele>
      </trkpt>
      <trkpt lat="43.259981" lon="27.998993">
        <ele>222.9</ele>
      </trkpt>
      <trkpt lat="43.260337" lon="27.999433">
        <ele>223.5</ele>
      </trkpt>
      <trkpt lat="43.260501" lon="27.999693">
        <ele>223.6</ele>
      </trkpt>
      <trkpt lat="43.261276" lon="28.00161">
        <ele>222.5</ele>
      </trkpt>
      <trkpt lat="43.26169" lon="28.002751">
        <ele>223.3</ele>
      </trkpt>
      <trkpt lat="43.261829" lon="28.003233">
        <ele>224.2</ele>
      </trkpt>
      <trkpt lat="43.261946" lon="28.003528">
        <ele>224.9</ele>
      </trkpt>
      <trkpt lat="43.262073" lon="28.003743">
        <ele>225.5</ele>
      </trkpt>
      <trkpt lat="43.262969" lon="28.005083">
        <ele>229.9</ele>
      </trkpt>
      <trkpt lat="43.263308" lon="28.005591">
        <ele>230.9</ele>
      </trkpt>
      <trkpt lat="43.264561" lon="28.007153">
        <ele>230</ele>
      </trkpt>
      <trkpt lat="43.264747" lon="28.00742">
        <ele>229.3</ele>
      </trkpt>
      <trkpt lat="43.26524" lon="28.008384">
        <ele>227.6</ele>
      </trkpt>
      <trkpt lat="43.265387" lon="28.008615">
        <ele>227.3</ele>
      </trkpt>
      <trkpt lat="43.265892" lon="28.00911">
        <ele>226.8</ele>
      </trkpt>
      <trkpt lat="43.266314" lon="28.009639">
        <ele>226.2</ele>
      </trkpt>
      <trkpt lat="43.267068" lon="28.010664">
        <ele>225.4</ele>
      </trkpt>
      <trkpt lat="43.267199" lon="28.010793">
        <ele>225.4</ele>
      </trkpt>
      <trkpt lat="43.267318" lon="28.010865">
        <ele>225.4</ele>
      </trkpt>
      <trkpt lat="43.267432" lon="28.010892">
        <ele>225.4</ele>
      </trkpt>
      <trkpt lat="43.26758" lon="28.010859">
        <ele>225.5</ele>
      </trkpt>
      <trkpt lat="43.268166" lon="28.010562">
        <ele>226.3</ele>
      </trkpt>
      <trkpt lat="43.269492" lon="28.01028">
        <ele>227.3</ele>
      </trkpt>
      <trkpt lat="43.270519" lon="28.010361">
        <ele>227.1</ele>
      </trkpt>
      <trkpt lat="43.271152" lon="28.010237">
        <ele>226.9</ele>
      </trkpt>
      <trkpt lat="43.271484" lon="28.010202">
        <ele>226.8</ele>
      </trkpt>
      <trkpt lat="43.271607" lon="28.010302">
        <ele>226.8</ele>
      </trkpt>
      <trkpt lat="43.271839" lon="28.010715">
        <ele>226.7</ele>
      </trkpt>
      <trkpt lat="43.271994" lon="28.010889">
        <ele>226.6</ele>
      </trkpt>
      <trkpt lat="43.272273" lon="28.011063">
        <ele>226.2</ele>
      </trkpt>
      <trkpt lat="43.272841" lon="28.011286">
        <ele>225.2</ele>
      </trkpt>
      <trkpt lat="43.272988" lon="28.011439">
        <ele>224.7</ele>
      </trkpt>
      <trkpt lat="43.273382" lon="28.012091">
        <ele>223</ele>
      </trkpt>
      <trkpt lat="43.273841" lon="28.013064">
        <ele>220.6</ele>
      </trkpt>
      <trkpt lat="43.273974" lon="28.013223">
        <ele>220.3</ele>
      </trkpt>
      <trkpt lat="43.274331" lon="28.013555">
        <ele>219.6</ele>
      </trkpt>
      <trkpt lat="43.274923" lon="28.014494">
        <ele>219.6</ele>
      </trkpt>
      <trkpt lat="43.275115" lon="28.014751">
        <ele>219.9</ele>
      </trkpt>
      <trkpt lat="43.276009" lon="28.015542">
        <ele>219.7</ele>
      </trkpt>
      <trkpt lat="43.276188" lon="28.01578">
        <ele>219.3</ele>
      </trkpt>
      <trkpt lat="43.276267" lon="28.016036">
        <ele>218.9</ele>
      </trkpt>
      <trkpt lat="43.276341" lon="28.016178">
        <ele>218.6</ele>
      </trkpt>
      <trkpt lat="43.276354" lon="28.016197">
        <ele>218.5</ele>
      </trkpt>
      <trkpt lat="43.276542" lon="28.016506">
        <ele>217.7</ele>
      </trkpt>
      <trkpt lat="43.276737" lon="28.016761">
        <ele>216.7</ele>
      </trkpt>
      <trkpt lat="43.277229" lon="28.017353">
        <ele>213.4</ele>
      </trkpt>
      <trkpt lat="43.277327" lon="28.017503">
        <ele>212.5</ele>
      </trkpt>
      <trkpt lat="43.277415" lon="28.017706">
        <ele>211.3</ele>
      </trkpt>
      <trkpt lat="43.277447" lon="28.017891">
        <ele>210.3</ele>
      </trkpt>
      <trkpt lat="43.277376" lon="28.0186">
        <ele>206.6</ele>
      </trkpt>
      <trkpt lat="43.277327" lon="28.018725">
        <ele>205.9</ele>
      </trkpt>
      <trkpt lat="43.277167" lon="28.018815">
        <ele>204.6</ele>
      </trkpt>
      <trkpt lat="43.277054" lon="28.018794">
        <ele>203.8</ele>
      </trkpt>
      <trkpt lat="43.276925" lon="28.01867">
        <ele>202.7</ele>
      </trkpt>
      <trkpt lat="43.276827" lon="28.01848">
        <ele>201.5</ele>
      </trkpt>
      <trkpt lat="43.276728" lon="28.018211">
        <ele>200.2</ele>
      </trkpt>
      <trkpt lat="43.27663" lon="28.018042">
        <ele>199.2</ele>
      </trkpt>
      <trkpt lat="43.276515" lon="28.017924">
        <ele>198.2</ele>
      </trkpt>
      <trkpt lat="43.275902" lon="28.017456">
        <ele>193.9</ele>
      </trkpt>
      <trkpt lat="43.275781" lon="28.017437">
        <ele>193.1</ele>
      </trkpt>
      <trkpt lat="43.27567" lon="28.017541">
        <ele>192.3</ele>
      </trkpt>
      <trkpt lat="43.2756" lon="28.017745">
        <ele>191.2</ele>
      </trkpt>
      <trkpt lat="43.275597" lon="28.017879">
        <ele>190.5</ele>
      </trkpt>
      <trkpt lat="43.275652" lon="28.018088">
        <ele>189.4</ele>
      </trkpt>
      <trkpt lat="43.276081" lon="28.019316">
        <ele>181.5</ele>
      </trkpt>
      <trkpt lat="43.276532" lon="28.020234">
        <ele>174.1</ele>
      </trkpt>
      <trkpt lat="43.276593" lon="28.020422">
        <ele>172.5</ele>
      </trkpt>
      <trkpt lat="43.276757" lon="28.021307">
        <ele>164.8</ele>
      </trkpt>
      <trkpt lat="43.276775" lon="28.021578">
        <ele>162.5</ele>
      </trkpt>
      <trkpt lat="43.276759" lon="28.021832">
        <ele>160.3</ele>
      </trkpt>
      <trkpt lat="43.276638" lon="28.022597">
        <ele>154.2</ele>
      </trkpt>
      <trkpt lat="43.276628" lon="28.022844">
        <ele>152.5</ele>
      </trkpt>
      <trkpt lat="43.276683" lon="28.025212">
        <ele>139.9</ele>
      </trkpt>
      <trkpt lat="43.276623" lon="28.025562">
        <ele>138.3</ele>
      </trkpt>
      <trkpt lat="43.276557" lon="28.025742">
        <ele>137.4</ele>
      </trkpt>
      <trkpt lat="43.276462" lon="28.025901">
        <ele>136.5</ele>
      </trkpt>
      <trkpt lat="43.275866" lon="28.026916">
        <ele>131.5</ele>
      </trkpt>
      <trkpt lat="43.275675" lon="28.026968">
        <ele>130.5</ele>
      </trkpt>
      <trkpt lat="43.275617" lon="28.026985">
        <ele>130.2</ele>
      </trkpt>
      <trkpt lat="43.275571" lon="28.027033">
        <ele>129.8</ele>
      </trkpt>
      <trkpt lat="43.275595" lon="28.027132">
        <ele>129.4</ele>
      </trkpt>
      <trkpt lat="43.275591" lon="28.027246">
        <ele>128.9</ele>
      </trkpt>
      <trkpt lat="43.27556" lon="28.02736">
        <ele>128.5</ele>
      </trkpt>
      <trkpt lat="43.275405" lon="28.027544">
        <ele>127.3</ele>
      </trkpt>
      <trkpt lat="43.274757" lon="28.028259">
        <ele>122.2</ele>
      </trkpt>
      <trkpt lat="43.274676" lon="28.028423">
        <ele>121.2</ele>
      </trkpt>
      <trkpt lat="43.274616" lon="28.028639">
        <ele>120</ele>
      </trkpt>
      <trkpt lat="43.274593" lon="28.028858">
        <ele>118.8</ele>
      </trkpt>
      <trkpt lat="43.27469" lon="28.02928">
        <ele>116.5</ele>
      </trkpt>
      <trkpt lat="43.274805" lon="28.02951">
        <ele>115.2</ele>
      </trkpt>
      <trkpt lat="43.274957" lon="28.029695">
        <ele>113.9</ele>
      </trkpt>
      <trkpt lat="43.275463" lon="28.030153">
        <ele>111</ele>
      </trkpt>
      <trkpt lat="43.275803" lon="28.030328">
        <ele>109.6</ele>
      </trkpt>
      <trkpt lat="43.276639" lon="28.030552">
        <ele>107.2</ele>
      </trkpt>
      <trkpt lat="43.276837" lon="28.030592">
        <ele>106.9</ele>
      </trkpt>
      <trkpt lat="43.277045" lon="28.030676">
        <ele>106.5</ele>
      </trkpt>
      <trkpt lat="43.27715" lon="28.030669">
        <ele>106.3</ele>
      </trkpt>
      <trkpt lat="43.277421" lon="28.030542">
        <ele>105.7</ele>
      </trkpt>
      <trkpt lat="43.277862" lon="28.030184">
        <ele>104</ele>
      </trkpt>
      <trkpt lat="43.278058" lon="28.030065">
        <ele>103.1</ele>
      </trkpt>
      <trkpt lat="43.278236" lon="28.030014">
        <ele>102.4</ele>
      </trkpt>
      <trkpt lat="43.278417" lon="28.030009">
        <ele>101.5</ele>
      </trkpt>
      <trkpt lat="43.278611" lon="28.030078">
        <ele>100.4</ele>
      </trkpt>
      <trkpt lat="43.279693" lon="28.030644">
        <ele>92.3</ele>
      </trkpt>
      <trkpt lat="43.279885" lon="28.030818">
        <ele>90.7</ele>
      </trkpt>
      <trkpt lat="43.280922" lon="28.032243">
        <ele>82.1</ele>
      </trkpt>
      <trkpt lat="43.281203" lon="28.03241">
        <ele>80.9</ele>
      </trkpt>
      <trkpt lat="43.28322" lon="28.033181">
        <ele>78</ele>
      </trkpt>
      <trkpt lat="43.284117" lon="28.033411">
        <ele>76.4</ele>
      </trkpt>
      <trkpt lat="43.284374" lon="28.033552">
        <ele>75.6</ele>
      </trkpt>
      <trkpt lat="43.285756" lon="28.03526">
        <ele>66.8</ele>
      </trkpt>
      <trkpt lat="43.286086" lon="28.035606">
        <ele>64.9</ele>
      </trkpt>
      <trkpt lat="43.286452" lon="28.035707">
        <ele>63</ele>
      </trkpt>
      <trkpt lat="43.286989" lon="28.035794">
        <ele>60</ele>
      </trkpt>
      <trkpt lat="43.287243" lon="28.035898">
        <ele>58.3</ele>
      </trkpt>
      <trkpt lat="43.287379" lon="28.036012">
        <ele>57.2</ele>
      </trkpt>
      <trkpt lat="43.287495" lon="28.036167">
        <ele>56.2</ele>
      </trkpt>
      <trkpt lat="43.28759" lon="28.036351">
        <ele>55.2</ele>
      </trkpt>
      <trkpt lat="43.287757" lon="28.036903">
        <ele>52.9</ele>
      </trkpt>
      <trkpt lat="43.287886" lon="28.037321">
        <ele>51.6</ele>
      </trkpt>
      <trkpt lat="43.288884" lon="28.03818">
        <ele>50.9</ele>
      </trkpt>
      <trkpt lat="43.289888" lon="28.038485">
        <ele>51</ele>
      </trkpt>
      <trkpt lat="43.290274" lon="28.03859">
        <ele>50.1</ele>
      </trkpt>
      <trkpt lat="43.290665" lon="28.038736">
        <ele>49.3</ele>
      </trkpt>
      <trkpt lat="43.290762" lon="28.03881">
        <ele>49</ele>
      </trkpt>
      <trkpt lat="43.29105" lon="28.039159">
        <ele>47.9</ele>
      </trkpt>
      <trkpt lat="43.291173" lon="28.039363">
        <ele>47.3</ele>
      </trkpt>
      <trkpt lat="43.291342" lon="28.039802">
        <ele>46.3</ele>
      </trkpt>
      <trkpt lat="43.291695" lon="28.041318">
        <ele>44.1</ele>
      </trkpt>
      <trkpt lat="43.291723" lon="28.041427">
        <ele>43.9</ele>
      </trkpt>
      <trkpt lat="43.291941" lon="28.041737">
        <ele>43.4</ele>
      </trkpt>
      <trkpt lat="43.293039" lon="28.042774">
        <ele>42.7</ele>
      </trkpt>
      <trkpt lat="43.293246" lon="28.04293">
        <ele>43</ele>
      </trkpt>
      <trkpt lat="43.293483" lon="28.043021">
        <ele>43.6</ele>
      </trkpt>
      <trkpt lat="43.2936" lon="28.043048">
        <ele>43.9</ele>
      </trkpt>
      <trkpt lat="43.293745" lon="28.043036">
        <ele>44.3</ele>
      </trkpt>
      <trkpt lat="43.294397" lon="28.042943">
        <ele>46.4</ele>
      </trkpt>
      <trkpt lat="43.294627" lon="28.042941">
        <ele>47.1</ele>
      </trkpt>
      <trkpt lat="43.295115" lon="28.043002">
        <ele>48.4</ele>
      </trkpt>
      <trkpt lat="43.295325" lon="28.043047">
        <ele>48.8</ele>
      </trkpt>
      <trkpt lat="43.29578" lon="28.043201">
        <ele>49.5</ele>
      </trkpt>
      <trkpt lat="43.296369" lon="28.043385">
        <ele>50</ele>
      </trkpt>
      <trkpt lat="43.297073" lon="28.043556">
        <ele>50.5</ele>
      </trkpt>
      <trkpt lat="43.29755" lon="28.043718">
        <ele>51.1</ele>
      </trkpt>
      <trkpt lat="43.297975" lon="28.043926">
        <ele>51.1</ele>
      </trkpt>
      <trkpt lat="43.298262" lon="28.044116">
        <ele>50.6</ele>
      </trkpt>
      <trkpt lat="43.298479" lon="28.044324">
        <ele>50</ele>
      </trkpt>
      <trkpt lat="43.298668" lon="28.04456">
        <ele>49.2</ele>
      </trkpt>
      <trkpt lat="43.298736" lon="28.044685">
        <ele>48.8</ele>
      </trkpt>
      <trkpt lat="43.299076" lon="28.045373">
        <ele>46.1</ele>
      </trkpt>
      <trkpt lat="43.299111" lon="28.045446">
        <ele>45.8</ele>
      </trkpt>
      <trkpt lat="43.299677" lon="28.046587">
        <ele>41</ele>
      </trkpt>
      <trkpt lat="43.299854" lon="28.046804">
        <ele>40.3</ele>
      </trkpt>
      <trkpt lat="43.300136" lon="28.047014">
        <ele>39.5</ele>
      </trkpt>
      <trkpt lat="43.300877" lon="28.047371">
        <ele>37.4</ele>
      </trkpt>
      <trkpt lat="43.301238" lon="28.047584">
        <ele>36.3</ele>
      </trkpt>
      <trkpt lat="43.301977" lon="28.048244">
        <ele>33.2</ele>
      </trkpt>
      <trkpt lat="43.303324" lon="28.049368">
        <ele>29.7</ele>
      </trkpt>
      <trkpt lat="43.30417" lon="28.04997">
        <ele>32.8</ele>
      </trkpt>
      <trkpt lat="43.304383" lon="28.050103">
        <ele>34.1</ele>
      </trkpt>
      <trkpt lat="43.304605" lon="28.050191">
        <ele>35.3</ele>
      </trkpt>
      <trkpt lat="43.304785" lon="28.050248">
        <ele>36.2</ele>
      </trkpt>
      <trkpt lat="43.305098" lon="28.05037">
        <ele>37.8</ele>
      </trkpt>
      <trkpt lat="43.305247" lon="28.050428">
        <ele>38.5</ele>
      </trkpt>
      <trkpt lat="43.305874" lon="28.05079">
        <ele>40.5</ele>
      </trkpt>
      <trkpt lat="43.306489" lon="28.051193">
        <ele>41.6</ele>
      </trkpt>
      <trkpt lat="43.307148" lon="28.051618">
        <ele>43.3</ele>
      </trkpt>
      <trkpt lat="43.307577" lon="28.05175">
        <ele>44.8</ele>
      </trkpt>
      <trkpt lat="43.30874" lon="28.052097">
        <ele>50.1</ele>
      </trkpt>
      <trkpt lat="43.310433" lon="28.052495">
        <ele>58.1</ele>
      </trkpt>
      <trkpt lat="43.310813" lon="28.052599">
        <ele>59.2</ele>
      </trkpt>
      <trkpt lat="43.311683" lon="28.052926">
        <ele>61.1</ele>
      </trkpt>
      <trkpt lat="43.313138" lon="28.053504">
        <ele>65.3</ele>
      </trkpt>
      <trkpt lat="43.313669" lon="28.053743">
        <ele>67.1</ele>
      </trkpt>
      <trkpt lat="43.313972" lon="28.053913">
        <ele>68</ele>
      </trkpt>
      <trkpt lat="43.315154" lon="28.054771">
        <ele>69.9</ele>
      </trkpt>
      <trkpt lat="43.316047" lon="28.055459">
        <ele>71.4</ele>
      </trkpt>
      <trkpt lat="43.316594" lon="28.055954">
        <ele>72.6</ele>
      </trkpt>
      <trkpt lat="43.319276" lon="28.058382">
        <ele>76.6</ele>
      </trkpt>
      <trkpt lat="43.321082" lon="28.059965">
        <ele>79.2</ele>
      </trkpt>
      <trkpt lat="43.322346" lon="28.061065">
        <ele>75.7</ele>
      </trkpt>
      <trkpt lat="43.323061" lon="28.061386">
        <ele>74.7</ele>
      </trkpt>
      <trkpt lat="43.323473" lon="28.061565">
        <ele>74.7</ele>
      </trkpt>
      <trkpt lat="43.324414" lon="28.061951">
        <ele>75.1</ele>
      </trkpt>
      <trkpt lat="43.325704" lon="28.06248">
        <ele>75.1</ele>
      </trkpt>
      <trkpt lat="43.326681" lon="28.06294">
        <ele>75.6</ele>
      </trkpt>
      <trkpt lat="43.327693" lon="28.063523">
        <ele>76.5</ele>
      </trkpt>
      <trkpt lat="43.327982" lon="28.063635">
        <ele>76.7</ele>
      </trkpt>
      <trkpt lat="43.328227" lon="28.063672">
        <ele>77</ele>
      </trkpt>
      <trkpt lat="43.329202" lon="28.063615">
        <ele>79.8</ele>
      </trkpt>
      <trkpt lat="43.329549" lon="28.063569">
        <ele>81.6</ele>
      </trkpt>
      <trkpt lat="43.330759" lon="28.063403">
        <ele>88.1</ele>
      </trkpt>
      <trkpt lat="43.331871" lon="28.063083">
        <ele>90.9</ele>
      </trkpt>
      <trkpt lat="43.33255" lon="28.06285">
        <ele>93.1</ele>
      </trkpt>
      <trkpt lat="43.332848" lon="28.062651">
        <ele>94.6</ele>
      </trkpt>
      <trkpt lat="43.333428" lon="28.062161">
        <ele>97.5</ele>
      </trkpt>
      <trkpt lat="43.33369" lon="28.061986">
        <ele>98.7</ele>
      </trkpt>
      <trkpt lat="43.333835" lon="28.061923">
        <ele>99.3</ele>
      </trkpt>
      <trkpt lat="43.334369" lon="28.061957">
        <ele>100.7</ele>
      </trkpt>
      <trkpt lat="43.335345" lon="28.062086">
        <ele>101.1</ele>
      </trkpt>
      <trkpt lat="43.335957" lon="28.062026">
        <ele>100.9</ele>
      </trkpt>
      <trkpt lat="43.336415" lon="28.061863">
        <ele>100.2</ele>
      </trkpt>
      <trkpt lat="43.336628" lon="28.061757">
        <ele>99.7</ele>
      </trkpt>
      <trkpt lat="43.33686" lon="28.061575">
        <ele>99</ele>
      </trkpt>
      <trkpt lat="43.337064" lon="28.06135">
        <ele>98.3</ele>
      </trkpt>
      <trkpt lat="43.337134" lon="28.061277">
        <ele>98</ele>
      </trkpt>
      <trkpt lat="43.337788" lon="28.060467">
        <ele>95.4</ele>
      </trkpt>
      <trkpt lat="43.338352" lon="28.05968">
        <ele>91.1</ele>
      </trkpt>
      <trkpt lat="43.338623" lon="28.059211">
        <ele>88.5</ele>
      </trkpt>
      <trkpt lat="43.33877" lon="28.059047">
        <ele>87.5</ele>
      </trkpt>
      <trkpt lat="43.338907" lon="28.059022">
        <ele>86.7</ele>
      </trkpt>
      <trkpt lat="43.338951" lon="28.059055">
        <ele>86.5</ele>
      </trkpt>
      <trkpt lat="43.339014" lon="28.05918">
        <ele>85.9</ele>
      </trkpt>
      <trkpt lat="43.339025" lon="28.059296">
        <ele>85.5</ele>
      </trkpt>
      <trkpt lat="43.33894" lon="28.059788">
        <ele>83</ele>
      </trkpt>
      <trkpt lat="43.338696" lon="28.060508">
        <ele>80.2</ele>
      </trkpt>
      <trkpt lat="43.338684" lon="28.060596">
        <ele>79.9</ele>
      </trkpt>
      <trkpt lat="43.338729" lon="28.060713">
        <ele>79.6</ele>
      </trkpt>
      <trkpt lat="43.338839" lon="28.060746">
        <ele>79.2</ele>
      </trkpt>
      <trkpt lat="43.33892" lon="28.060686">
        <ele>78.8</ele>
      </trkpt>
      <trkpt lat="43.339349" lon="28.059943">
        <ele>75.2</ele>
      </trkpt>
      <trkpt lat="43.340169" lon="28.058497">
        <ele>66.6</ele>
      </trkpt>
      <trkpt lat="43.340446" lon="28.058009">
        <ele>63.8</ele>
      </trkpt>
      <trkpt lat="43.340512" lon="28.057868">
        <ele>63.1</ele>
      </trkpt>
      <trkpt lat="43.340579" lon="28.057722">
        <ele>62.3</ele>
      </trkpt>
      <trkpt lat="43.340676" lon="28.057388">
        <ele>60.9</ele>
      </trkpt>
      <trkpt lat="43.341036" lon="28.055909">
        <ele>54.3</ele>
      </trkpt>
      <trkpt lat="43.341548" lon="28.054254">
        <ele>43.8</ele>
      </trkpt>
      <trkpt lat="43.341873" lon="28.053357">
        <ele>37.7</ele>
      </trkpt>
      <trkpt lat="43.342041" lon="28.053006">
        <ele>35.1</ele>
      </trkpt>
      <trkpt lat="43.342232" lon="28.052617">
        <ele>32</ele>
      </trkpt>
      <trkpt lat="43.342393" lon="28.052218">
        <ele>29.1</ele>
      </trkpt>
      <trkpt lat="43.342478" lon="28.052084">
        <ele>28</ele>
      </trkpt>
      <trkpt lat="43.342608" lon="28.051961">
        <ele>26.7</ele>
      </trkpt>
      <trkpt lat="43.342968" lon="28.051684">
        <ele>23.6</ele>
      </trkpt>
      <trkpt lat="43.343477" lon="28.05133">
        <ele>19.5</ele>
      </trkpt>
      <trkpt lat="43.344387" lon="28.050988">
        <ele>15.6</ele>
      </trkpt>
      <trkpt lat="43.344957" lon="28.050781">
        <ele>15.7</ele>
      </trkpt>
      <trkpt lat="43.345109" lon="28.050725">
        <ele>16</ele>
      </trkpt>
      <trkpt lat="43.345489" lon="28.050603">
        <ele>17.2</ele>
      </trkpt>
      <trkpt lat="43.345591" lon="28.05057">
        <ele>17.6</ele>
      </trkpt>
      <trkpt lat="43.34598" lon="28.050473">
        <ele>19.4</ele>
      </trkpt>
      <trkpt lat="43.346694" lon="28.050259">
        <ele>23.4</ele>
      </trkpt>
      <trkpt lat="43.347226" lon="28.050219">
        <ele>25.8</ele>
      </trkpt>
      <trkpt lat="43.347449" lon="28.050197">
        <ele>26.6</ele>
      </trkpt>
      <trkpt lat="43.34769" lon="28.050171">
        <ele>27.3</ele>
      </trkpt>
      <trkpt lat="43.348291" lon="28.050177">
        <ele>28.2</ele>
      </trkpt>
      <trkpt lat="43.349004" lon="28.050109">
        <ele>28.4</ele>
      </trkpt>
      <trkpt lat="43.349263" lon="28.050085">
        <ele>28.4</ele>
      </trkpt>
      <trkpt lat="43.349705" lon="28.050055">
        <ele>28.5</ele>
      </trkpt>
      <trkpt lat="43.349821" lon="28.049899">
        <ele>28.5</ele>
      </trkpt>
      <trkpt lat="43.349899" lon="28.049744">
        <ele>28.6</ele>
      </trkpt>
      <trkpt lat="43.349902" lon="28.049631">
        <ele>28.6</ele>
      </trkpt>
      <trkpt lat="43.34995" lon="28.049538">
        <ele>28.7</ele>
      </trkpt>
      <trkpt lat="43.350087" lon="28.049293">
        <ele>28.9</ele>
      </trkpt>
      <trkpt lat="43.350192" lon="28.049096">
        <ele>29.1</ele>
      </trkpt>
      <trkpt lat="43.351392" lon="28.046836">
        <ele>32.2</ele>
      </trkpt>
      <trkpt lat="43.352586" lon="28.044593">
        <ele>34.7</ele>
      </trkpt>
      <trkpt lat="43.352798" lon="28.044222">
        <ele>35</ele>
      </trkpt>
      <trkpt lat="43.353165" lon="28.04366">
        <ele>35.1</ele>
      </trkpt>
      <trkpt lat="43.353521" lon="28.04323">
        <ele>35</ele>
      </trkpt>
      <trkpt lat="43.354492" lon="28.042162">
        <ele>34.5</ele>
      </trkpt>
      <trkpt lat="43.35403" lon="28.041521">
        <ele>34.4</ele>
      </trkpt>
      <trkpt lat="43.354492" lon="28.042162">
        <ele>34.7</ele>
      </trkpt>
      <trkpt lat="43.357207" lon="28.039175">
        <ele>38.6</ele>
      </trkpt>
      <trkpt lat="43.357783" lon="28.03854">
        <ele>39.2</ele>
      </trkpt>
      <trkpt lat="43.360239" lon="28.035826">
        <ele>41.2</ele>
      </trkpt>
      <trkpt lat="43.364871" lon="28.030698">
        <ele>58.1</ele>
      </trkpt>
      <trkpt lat="43.365124" lon="28.030481">
        <ele>58.8</ele>
      </trkpt>
      <trkpt lat="43.365533" lon="28.030054">
        <ele>59.8</ele>
      </trkpt>
      <trkpt lat="43.365431" lon="28.029974">
        <ele>60</ele>
      </trkpt>
      <trkpt lat="43.364532" lon="28.029269">
        <ele>60.6</ele>
      </trkpt>
      <trkpt lat="43.363615" lon="28.028481">
        <ele>60.9</ele>
      </trkpt>
      <trkpt lat="43.36207" lon="28.027236">
        <ele>61.9</ele>
      </trkpt>
      <trkpt lat="43.360783" lon="28.026104">
        <ele>62.3</ele>
      </trkpt>
      <trkpt lat="43.357436" lon="28.023093">
        <ele>60.6</ele>
      </trkpt>
      <trkpt lat="43.356958" lon="28.022627">
        <ele>60.2</ele>
      </trkpt>
      <trkpt lat="43.356812" lon="28.022432">
        <ele>60.1</ele>
      </trkpt>
      <trkpt lat="43.356602" lon="28.022048">
        <ele>59.9</ele>
      </trkpt>
      <trkpt lat="43.356445" lon="28.021691">
        <ele>59.7</ele>
      </trkpt>
      <trkpt lat="43.356028" lon="28.02059">
        <ele>58.8</ele>
      </trkpt>
      <trkpt lat="43.355539" lon="28.019383">
        <ele>57.9</ele>
      </trkpt>
      <trkpt lat="43.355361" lon="28.018744">
        <ele>57.7</ele>
      </trkpt>
      <trkpt lat="43.355198" lon="28.017996">
        <ele>57.8</ele>
      </trkpt>
      <trkpt lat="43.35494" lon="28.016811">
        <ele>59.6</ele>
      </trkpt>
      <trkpt lat="43.354866" lon="28.016468">
        <ele>60.6</ele>
      </trkpt>
      <trkpt lat="43.354624" lon="28.015311">
        <ele>64.8</ele>
      </trkpt>
      <trkpt lat="43.354576" lon="28.015119">
        <ele>65.6</ele>
      </trkpt>
      <trkpt lat="43.354379" lon="28.014487">
        <ele>68.3</ele>
      </trkpt>
      <trkpt lat="43.353825" lon="28.013129">
        <ele>74</ele>
      </trkpt>
      <trkpt lat="43.353649" lon="28.012702">
        <ele>75.7</ele>
      </trkpt>
      <trkpt lat="43.353487" lon="28.012205">
        <ele>77.6</ele>
      </trkpt>
      <trkpt lat="43.352706" lon="28.008679">
        <ele>90.9</ele>
      </trkpt>
      <trkpt lat="43.352698" lon="28.008572">
        <ele>91.3</ele>
      </trkpt>
      <trkpt lat="43.352536" lon="28.007875">
        <ele>94.5</ele>
      </trkpt>
      <trkpt lat="43.35246" lon="28.007579">
        <ele>95.9</ele>
      </trkpt>
      <trkpt lat="43.352437" lon="28.00748">
        <ele>96.4</ele>
      </trkpt>
      <trkpt lat="43.352419" lon="28.007416">
        <ele>96.7</ele>
      </trkpt>
      <trkpt lat="43.352348" lon="28.007159">
        <ele>97.8</ele>
      </trkpt>
      <trkpt lat="43.351617" lon="28.00484">
        <ele>107.7</ele>
      </trkpt>
      <trkpt lat="43.351551" lon="28.004531">
        <ele>109.2</ele>
      </trkpt>
      <trkpt lat="43.351508" lon="28.004065">
        <ele>111.4</ele>
      </trkpt>
      <trkpt lat="43.35155" lon="28.002746">
        <ele>118.2</ele>
      </trkpt>
      <trkpt lat="43.351532" lon="28.002281">
        <ele>120.6</ele>
      </trkpt>
      <trkpt lat="43.351462" lon="28.001818">
        <ele>122.8</ele>
      </trkpt>
      <trkpt lat="43.351315" lon="28.001328">
        <ele>125.4</ele>
      </trkpt>
      <trkpt lat="43.350967" lon="28.000483">
        <ele>130.4</ele>
      </trkpt>
      <trkpt lat="43.350433" lon="27.999357">
        <ele>136.7</ele>
      </trkpt>
      <trkpt lat="43.349541" lon="27.997292">
        <ele>144.8</ele>
      </trkpt>
      <trkpt lat="43.349302" lon="27.996787">
        <ele>146.3</ele>
      </trkpt>
      <trkpt lat="43.349154" lon="27.99654">
        <ele>147.1</ele>
      </trkpt>
      <trkpt lat="43.348917" lon="27.996299">
        <ele>148.3</ele>
      </trkpt>
      <trkpt lat="43.348751" lon="27.996184">
        <ele>149.1</ele>
      </trkpt>
      <trkpt lat="43.348663" lon="27.996122">
        <ele>149.5</ele>
      </trkpt>
      <trkpt lat="43.348387" lon="27.996032">
        <ele>151</ele>
      </trkpt>
      <trkpt lat="43.347965" lon="27.995958">
        <ele>153.5</ele>
      </trkpt>
      <trkpt lat="43.345601" lon="27.995668">
        <ele>173.4</ele>
      </trkpt>
      <trkpt lat="43.345228" lon="27.995602">
        <ele>176.2</ele>
      </trkpt>
      <trkpt lat="43.344939" lon="27.995514">
        <ele>178.2</ele>
      </trkpt>
      <trkpt lat="43.344637" lon="27.995317">
        <ele>180.3</ele>
      </trkpt>
      <trkpt lat="43.344374" lon="27.995071">
        <ele>182.3</ele>
      </trkpt>
      <trkpt lat="43.344171" lon="27.994815">
        <ele>184</ele>
      </trkpt>
      <trkpt lat="43.343953" lon="27.994377">
        <ele>186.2</ele>
      </trkpt>
      <trkpt lat="43.343888" lon="27.994185">
        <ele>187.1</ele>
      </trkpt>
      <trkpt lat="43.343795" lon="27.993765">
        <ele>188.9</ele>
      </trkpt>
      <trkpt lat="43.34359" lon="27.991588">
        <ele>197.5</ele>
      </trkpt>
      <trkpt lat="43.343342" lon="27.990733">
        <ele>201</ele>
      </trkpt>
      <trkpt lat="43.342535" lon="27.989175">
        <ele>208.9</ele>
      </trkpt>
      <trkpt lat="43.341513" lon="27.987277">
        <ele>218.9</ele>
      </trkpt>
      <trkpt lat="43.341314" lon="27.986931">
        <ele>220.3</ele>
      </trkpt>
      <trkpt lat="43.340971" lon="27.986575">
        <ele>222</ele>
      </trkpt>
      <trkpt lat="43.340665" lon="27.986408">
        <ele>223.1</ele>
      </trkpt>
      <trkpt lat="43.340471" lon="27.986359">
        <ele>223.8</ele>
      </trkpt>
      <trkpt lat="43.340149" lon="27.986374">
        <ele>225.2</ele>
      </trkpt>
      <trkpt lat="43.339821" lon="27.986488">
        <ele>226.8</ele>
      </trkpt>
      <trkpt lat="43.337534" lon="27.98813">
        <ele>242.6</ele>
      </trkpt>
      <trkpt lat="43.337347" lon="27.988239">
        <ele>243.6</ele>
      </trkpt>
      <trkpt lat="43.337144" lon="27.9883">
        <ele>244.7</ele>
      </trkpt>
      <trkpt lat="43.336957" lon="27.988335">
        <ele>245.6</ele>
      </trkpt>
      <trkpt lat="43.336734" lon="27.98833">
        <ele>246.5</ele>
      </trkpt>
      <trkpt lat="43.336239" lon="27.98818">
        <ele>248.3</ele>
      </trkpt>
      <trkpt lat="43.335978" lon="27.988024">
        <ele>249.1</ele>
      </trkpt>
      <trkpt lat="43.335308" lon="27.987397">
        <ele>250.7</ele>
      </trkpt>
      <trkpt lat="43.333561" lon="27.985643">
        <ele>253.8</ele>
      </trkpt>
      <trkpt lat="43.333217" lon="27.985125">
        <ele>255.4</ele>
      </trkpt>
      <trkpt lat="43.33305" lon="27.984718">
        <ele>256.7</ele>
      </trkpt>
      <trkpt lat="43.332966" lon="27.984424">
        <ele>257.8</ele>
      </trkpt>
      <trkpt lat="43.332926" lon="27.984186">
        <ele>258.6</ele>
      </trkpt>
      <trkpt lat="43.33288" lon="27.983405">
        <ele>261.6</ele>
      </trkpt>
      <trkpt lat="43.333012" lon="27.979282">
        <ele>278.6</ele>
      </trkpt>
      <trkpt lat="43.332967" lon="27.978761">
        <ele>280.9</ele>
      </trkpt>
      <trkpt lat="43.332923" lon="27.978557">
        <ele>281.7</ele>
      </trkpt>
      <trkpt lat="43.332863" lon="27.978343">
        <ele>282.6</ele>
      </trkpt>
      <trkpt lat="43.332695" lon="27.97791">
        <ele>284.4</ele>
      </trkpt>
      <trkpt lat="43.33253" lon="27.9776">
        <ele>285.6</ele>
      </trkpt>
      <trkpt lat="43.331945" lon="27.976915">
        <ele>287.4</ele>
      </trkpt>
      <trkpt lat="43.329734" lon="27.974764">
        <ele>286.1</ele>
      </trkpt>
      <trkpt lat="43.323797" lon="27.968886">
        <ele>291.2</ele>
      </trkpt>
      <trkpt lat="43.321818" lon="27.966934">
        <ele>293.9</ele>
      </trkpt>
      <trkpt lat="43.321453" lon="27.966565">
        <ele>294.8</ele>
      </trkpt>
      <trkpt lat="43.320992" lon="27.966119">
        <ele>296.1</ele>
      </trkpt>
      <trkpt lat="43.320596" lon="27.965779">
        <ele>297.3</ele>
      </trkpt>
      <trkpt lat="43.320217" lon="27.965497">
        <ele>298.2</ele>
      </trkpt>
      <trkpt lat="43.319825" lon="27.965245">
        <ele>299</ele>
      </trkpt>
      <trkpt lat="43.316596" lon="27.963373">
        <ele>302.3</ele>
      </trkpt>
      <trkpt lat="43.316129" lon="27.963158">
        <ele>302.4</ele>
      </trkpt>
      <trkpt lat="43.31569" lon="27.963029">
        <ele>302.5</ele>
      </trkpt>
      <trkpt lat="43.308039" lon="27.961384">
        <ele>310</ele>
      </trkpt>
      <trkpt lat="43.303386" lon="27.960376">
        <ele>317.2</ele>
      </trkpt>
      <trkpt lat="43.302219" lon="27.960124">
        <ele>319.1</ele>
      </trkpt>
      <trkpt lat="43.301757" lon="27.959986">
        <ele>319.6</ele>
      </trkpt>
      <trkpt lat="43.301216" lon="27.959775">
        <ele>320</ele>
      </trkpt>
      <trkpt lat="43.301056" lon="27.95966">
        <ele>320</ele>
      </trkpt>
      <trkpt lat="43.300806" lon="27.959489">
        <ele>320</ele>
      </trkpt>
      <trkpt lat="43.298852" lon="27.957694">
        <ele>317.9</ele>
      </trkpt>
      <trkpt lat="43.295068" lon="27.954133">
        <ele>316.6</ele>
      </trkpt>
      <trkpt lat="43.294754" lon="27.953789">
        <ele>316.7</ele>
      </trkpt>
      <trkpt lat="43.294455" lon="27.953403">
        <ele>316.9</ele>
      </trkpt>
      <trkpt lat="43.292015" lon="27.950059">
        <ele>320.5</ele>
      </trkpt>
      <trkpt lat="43.291668" lon="27.949739">
        <ele>321.5</ele>
      </trkpt>
      <trkpt lat="43.291568" lon="27.949667">
        <ele>321.7</ele>
      </trkpt>
      <trkpt lat="43.291008" lon="27.9493">
        <ele>323.5</ele>
      </trkpt>
      <trkpt lat="43.290373" lon="27.94909">
        <ele>324.9</ele>
      </trkpt>
      <trkpt lat="43.290039" lon="27.949039">
        <ele>325.4</ele>
      </trkpt>
      <trkpt lat="43.289676" lon="27.949028">
        <ele>325.5</ele>
      </trkpt>
      <trkpt lat="43.289352" lon="27.949058">
        <ele>325.4</ele>
      </trkpt>
      <trkpt lat="43.289028" lon="27.949136">
        <ele>325.2</ele>
      </trkpt>
      <trkpt lat="43.288707" lon="27.949261">
        <ele>325</ele>
      </trkpt>
      <trkpt lat="43.288374" lon="27.949432">
        <ele>324.8</ele>
      </trkpt>
      <trkpt lat="43.287185" lon="27.95012">
        <ele>325</ele>
      </trkpt>
      <trkpt lat="43.286839" lon="27.950246">
        <ele>325.1</ele>
      </trkpt>
      <trkpt lat="43.286749" lon="27.950237">
        <ele>325.2</ele>
      </trkpt>
      </trkseg>
    </trk>
</gpx>